{"type": "FeatureCollection", "features": [ {"type": "Feature", "properties": {"norad_id": 34141, "name": "COSMOS 2251 DEB", "group": "cosmos-2251-debris", "lat": -67.5367716392857, "lon": -42.003655789395566, "alt_km": 764.972793015495, "timestamp": "2025-12-27T02:10:16.582877+00:00", "meta": {"OBJECT_NAME": "COSMOS 2251 DEB", "OBJECT_ID": "1993-036LN", "EPOCH": "2025-12-26T10:31:39.408384", "MEAN_MOTION": 14.49377505, "ECCENTRICITY": 0.0046506, "INCLINATION": 74.0117, "RA_OF_ASC_NODE": 3.1237, "ARG_OF_PERICENTER": 84.4634, "MEAN_ANOMALY": 42.0983, "EPHEMERIS_TYPE": 0, "CLASSIFICATION_TYPE": "U", "NORAD_CAT_ID": 34141, "ELEMENT_SET_NO": 999, "REV_AT_EPOCH": 87892, "BSTAR": 0.0014499, "MEAN_MOTION_DOT": 5.595e-05, "MEAN_MOTION_DDOT": 0}, "tle": {"line1": "1 34141U 93036LN  25360.43865056  .00005595  00000+0  14499-2 0  9999", "line2": "2 34141  74.0117   3.1237 0046506  84.4634  42.0983 14.49377505878926"}}, "geometry": {"type": "Point", "coordinates": [-42.003655789395566, -67.5367716392857]}}, {"type": "Feature", "properties": {"norad_id": 34270, "name": "COSMOS 2251 DEB", "group": "cosmos-2251-debris", "lat": -16.15340677520565, "lon": -85.79215169488366, "alt_km": 677.0857796607443, "timestamp": "2025-12-27T02:10:16.582887+00:00", "meta": {"OBJECT_NAME": "COSMOS 2251 DEB", "OBJECT_ID": "1993-036LQ", "EPOCH": "2025-12-26T18:03:16.787232", "MEAN_MOTION": 14.6526436, "ECCENTRICITY": 0.0048036, "INCLINATION": 74.0105, "RA_OF_ASC_NODE": 279.6234, "ARG_OF_PERICENTER": 68.1685, "MEAN_ANOMALY": 292.4583, "EPHEMERIS_TYPE": 0, "CLASSIFICATION_TYPE": "U", "NORAD_CAT_ID": 34270, "ELEMENT_SET_NO": 999, "REV_AT_EPOCH": 89301, "BSTAR": 0.00049811, "MEAN_MOTION_DOT": 2.7e-05, "MEAN_MOTION_DDOT": 0}, "tle": {"line1": "1 34270U 93036LQ  25360.75227763  .00002700  00000+0  49811-3 0  9996", "line2": "2 34270  74.0105 279.6234 0048036  68.1685 292.4583 14.65264360893014"}}, "geometry": {"type": "Point", "coordinates": [-85.79215169488366, -16.15340677520565]}}, {"type": "Feature", "properties": {"norad_id": 34271, "name": "COSMOS 2251 DEB", "group": "cosmos-2251-debris", "lat": -41.604980293477055, "lon": 6.181092563607253, "alt_km": 651.1110800004981, "timestamp": "2025-12-27T02:10:16.582897+00:00", "meta": {"OBJECT_NAME": "COSMOS 2251 DEB", "OBJECT_ID": "1993-036LR", "EPOCH": "2025-12-25T13:30:46.228320", "MEAN_MOTION": 14.7104633, "ECCENTRICITY": 0.0018087, "INCLINATION": 74.0201, "RA_OF_ASC_NODE": 174.4074, "ARG_OF_PERICENTER": 227.5372, "MEAN_ANOMALY": 190.3592, "EPHEMERIS_TYPE": 0, "CLASSIFICATION_TYPE": "U", "NORAD_CAT_ID": 34271, "ELEMENT_SET_NO": 999, "REV_AT_EPOCH": 88423, "BSTAR": 0.0023085, "MEAN_MOTION_DOT": 0.00014213, "MEAN_MOTION_DDOT": 0}, "tle": {"line1": "1 34271U 93036LR  25359.56303505  .00014213  00000+0  23085-2 0  9999", "line2": "2 34271  74.0201 174.4074 0018087 227.5372 190.3592 14.71046330884235"}}, "geometry": {"type": "Point", "coordinates": [6.181092563607253, -41.604980293477055]}}, {"type": "Feature", "properties": {"norad_id": 34273, "name": "COSMOS 2251 DEB", "group": "cosmos-2251-debris", "lat": 67.42718141822857, "lon": -163.53392211013835, "alt_km": 680.0953123329509, "timestamp": "2025-12-27T02:10:16.582907+00:00", "meta": {"OBJECT_NAME": "COSMOS 2251 DEB", "OBJECT_ID": "1993-036LT", "EPOCH": "2025-12-26T12:50:56.279040", "MEAN_MOTION": 14.61344007, "ECCENTRICITY": 0.001327, "INCLINATION": 74.0357, "RA_OF_ASC_NODE": 61.0479, "ARG_OF_PERICENTER": 186.2896, "MEAN_ANOMALY": 240.9182, "EPHEMERIS_TYPE": 0, "CLASSIFICATION_TYPE": "U", "NORAD_CAT_ID": 34273, "ELEMENT_SET_NO": 999, "REV_AT_EPOCH": 88823, "BSTAR": 0.00085763, "MEAN_MOTION_DOT": 4.216e-05, "MEAN_MOTION_DDOT": 0}, "tle": {"line1": "1 34273U 93036LT  25360.53537360  .00004216  00000+0  85763-3 0  9992", "line2": "2 34273  74.0357  61.0479 0013270 186.2896 240.9182 14.61344007888232"}}, "geometry": {"type": "Point", "coordinates": [-163.53392211013835, 67.42718141822857]}}, {"type": "Feature", "properties": {"norad_id": 34274, "name": "COSMOS 2251 DEB", "group": "cosmos-2251-debris", "lat": 12.411047761753183, "lon": 44.535152178224735, "alt_km": 693.0676665855608, "timestamp": "2025-12-27T02:10:16.582917+00:00", "meta": {"OBJECT_NAME": "COSMOS 2251 DEB", "OBJECT_ID": "1993-036LU", "EPOCH": "2025-12-26T09:49:41.735712", "MEAN_MOTION": 14.64932186, "ECCENTRICITY": 0.0021167, "INCLINATION": 74.0039, "RA_OF_ASC_NODE": 42.2274, "ARG_OF_PERICENTER": 190.8598, "MEAN_ANOMALY": 192.4467, "EPHEMERIS_TYPE": 0, "CLASSIFICATION_TYPE": "U", "NORAD_CAT_ID": 34274, "ELEMENT_SET_NO": 999, "REV_AT_EPOCH": 88876, "BSTAR": 0.0010046, "MEAN_MOTION_DOT": 5.366e-05, "MEAN_MOTION_DDOT": 0}, "tle": {"line1": "1 34274U 93036LU  25360.40951083  .00005366  00000+0  10046-2 0  9999", "line2": "2 34274  74.0039  42.2274 0021167 190.8598 192.4467 14.64932186888767"}}, "geometry": {"type": "Point", "coordinates": [44.535152178224735, 12.411047761753183]}}, {"type": "Feature", "properties": {"norad_id": 34276, "name": "COSMOS 2251 DEB", "group": "cosmos-2251-debris", "lat": -71.64687605856601, "lon": -1.6862399137295878, "alt_km": 704.9305920249462, "timestamp": "2025-12-27T02:10:16.582927+00:00", "meta": {"OBJECT_NAME": "COSMOS 2251 DEB", "OBJECT_ID": "1993-036LW", "EPOCH": "2025-12-26T13:57:01.187136", "MEAN_MOTION": 14.57315229, "ECCENTRICITY": 0.0022015, "INCLINATION": 74.0234, "RA_OF_ASC_NODE": 59.0032, "ARG_OF_PERICENTER": 204.4532, "MEAN_ANOMALY": 284.0843, "EPHEMERIS_TYPE": 0, "CLASSIFICATION_TYPE": "U", "NORAD_CAT_ID": 34276, "ELEMENT_SET_NO": 999, "REV_AT_EPOCH": 88794, "BSTAR": 0.00069567, "MEAN_MOTION_DOT": 3.131e-05, "MEAN_MOTION_DDOT": 0}, "tle": {"line1": "1 34276U 93036LW  25360.58126374  .00003131  00000+0  69567-3 0  9998", "line2": "2 34276  74.0234  59.0032 0022015 204.4532 284.0843 14.57315229887947"}}, "geometry": {"type": "Point", "coordinates": [-1.6862399137295878, -71.64687605856601]}}, {"type": "Feature", "properties": {"norad_id": 34297, "name": "COSMOS 2251 DEB", "group": "cosmos-2251-debris", "lat": -51.385011118223545, "lon": -123.10168082698712, "alt_km": 764.1151014886354, "timestamp": "2025-12-27T02:10:16.582937+00:00", "meta": {"OBJECT_NAME": "COSMOS 2251 DEB", "OBJECT_ID": "1993-036MT", "EPOCH": "2025-12-26T10:15:55.052928", "MEAN_MOTION": 14.36640578, "ECCENTRICITY": 0.0017793, "INCLINATION": 74.0483, "RA_OF_ASC_NODE": 259.0982, "ARG_OF_PERICENTER": 325.3074, "MEAN_ANOMALY": 154.1728, "EPHEMERIS_TYPE": 0, "CLASSIFICATION_TYPE": "U", "NORAD_CAT_ID": 34297, "ELEMENT_SET_NO": 999, "REV_AT_EPOCH": 88261, "BSTAR": 0.00013276, "MEAN_MOTION_DOT": 3.65e-06, "MEAN_MOTION_DDOT": 0}, "tle": {"line1": "1 34297U 93036MT  25360.42772052  .00000365  00000+0  13276-3 0  9996", "line2": "2 34297  74.0483 259.0982 0017793 325.3074 154.1728 14.36640578882616"}}, "geometry": {"type": "Point", "coordinates": [-123.10168082698712, -51.385011118223545]}}, {"type": "Feature", "properties": {"norad_id": 34301, "name": "COSMOS 2251 DEB", "group": "cosmos-2251-debris", "lat": -40.89415952900226, "lon": -27.450542053399648, "alt_km": 612.5477030350212, "timestamp": "2025-12-27T02:10:16.582947+00:00", "meta": {"OBJECT_NAME": "COSMOS 2251 DEB", "OBJECT_ID": "1993-036MX", "EPOCH": "2025-12-26T12:33:41.976000", "MEAN_MOTION": 14.85255875, "ECCENTRICITY": 0.0009678, "INCLINATION": 74.0061, "RA_OF_ASC_NODE": 139.2942, "ARG_OF_PERICENTER": 203.9823, "MEAN_ANOMALY": 227.9901, "EPHEMERIS_TYPE": 0, "CLASSIFICATION_TYPE": "U", "NORAD_CAT_ID": 34301, "ELEMENT_SET_NO": 999, "REV_AT_EPOCH": 88605, "BSTAR": 0.0032937, "MEAN_MOTION_DOT": 0.00028381, "MEAN_MOTION_DDOT": 0}, "tle": {"line1": "1 34301U 93036MX  25360.52340250  .00028381  00000+0  32937-2 0  9996", "line2": "2 34301  74.0061 139.2942 0009678 203.9823 227.9901 14.85255875886055"}}, "geometry": {"type": "Point", "coordinates": [-27.450542053399648, -40.89415952900226]}}, {"type": "Feature", "properties": {"norad_id": 34302, "name": "COSMOS 2251 DEB", "group": "cosmos-2251-debris", "lat": 55.59530916177554, "lon": -107.14015712312776, "alt_km": 811.1822733882, "timestamp": "2025-12-27T02:10:16.582957+00:00", "meta": {"OBJECT_NAME": "COSMOS 2251 DEB", "OBJECT_ID": "1993-036MY", "EPOCH": "2025-12-26T17:51:58.155840", "MEAN_MOTION": 14.39383485, "ECCENTRICITY": 0.0079578, "INCLINATION": 74.1784, "RA_OF_ASC_NODE": 97.953, "ARG_OF_PERICENTER": 309.3279, "MEAN_ANOMALY": 179.0398, "EPHEMERIS_TYPE": 0, "CLASSIFICATION_TYPE": "U", "NORAD_CAT_ID": 34302, "ELEMENT_SET_NO": 999, "REV_AT_EPOCH": 87922, "BSTAR": 0.00064412, "MEAN_MOTION_DOT": 2.053e-05, "MEAN_MOTION_DDOT": 0}, "tle": {"line1": "1 34302U 93036MY  25360.74442310  .00002053  00000+0  64412-3 0  9993", "line2": "2 34302  74.1784  97.9530 0079578 309.3279 179.0398 14.39383485879220"}}, "geometry": {"type": "Point", "coordinates": [-107.14015712312776, 55.59530916177554]}}, {"type": "Feature", "properties": {"norad_id": 34303, "name": "COSMOS 2251 DEB", "group": "cosmos-2251-debris", "lat": 6.189129357402102, "lon": -97.38189200324082, "alt_km": 627.938123269847, "timestamp": "2025-12-27T02:10:16.582968+00:00", "meta": {"OBJECT_NAME": "COSMOS 2251 DEB", "OBJECT_ID": "1993-036MZ", "EPOCH": "2025-12-26T19:49:59.858400", "MEAN_MOTION": 14.54644604, "ECCENTRICITY": 0.0135655, "INCLINATION": 74.0047, "RA_OF_ASC_NODE": 261.3361, "ARG_OF_PERICENTER": 36.1964, "MEAN_ANOMALY": 28.7437, "EPHEMERIS_TYPE": 0, "CLASSIFICATION_TYPE": "U", "NORAD_CAT_ID": 34303, "ELEMENT_SET_NO": 999, "REV_AT_EPOCH": 88167, "BSTAR": 0.0015353, "MEAN_MOTION_DOT": 7.399e-05, "MEAN_MOTION_DDOT": 0}, "tle": {"line1": "1 34303U 93036MZ  25360.82638725  .00007399  00000+0  15353-2 0  9997", "line2": "2 34303  74.0047 261.3361 0135655  36.1964  28.7437 14.54644604881672"}}, "geometry": {"type": "Point", "coordinates": [-97.38189200324082, 6.189129357402102]}}]}